CCSDS_OMM_VERS = 2.0
CREATION_DATE  = 
ORIGINATOR     = 

OBJECT_NAME    = STARLINK-35509
OBJECT_ID      = 2025-243Y
CENTER_NAME    = EARTH
REF_FRAME      = TEME
TIME_SYSTEM    = UTC
MEAN_ELEMENT_THEORY = SGP/SGP4

EPOCH          = 2025-11-12T06:00:02.999808
MEAN_MOTION    = 15.74163672
ECCENTRICITY   = .00011403
INCLINATION    = 53.1576
RA_OF_ASC_NODE = 73.4477
ARG_OF_PERICENTER = 97.7230
MEAN_ANOMALY   = 328.6695

EPHEMERIS_TYPE = 0
CLASSIFICATION_TYPE = U
NORAD_CAT_ID   = 66199
ELEMENT_SET_NO = 999
REV_AT_EPOCH   = 368
BSTAR          = .4008858E-3
MEAN_MOTION_DOT = .58425E-3
MEAN_MOTION_DDOT = 0

CCSDS_OMM_VERS = 2.0
CREATION_DATE  = 
ORIGINATOR     = 

OBJECT_NAME    = STARLINK-35551
OBJECT_ID      = 2025-243Z
CENTER_NAME    = EARTH
REF_FRAME      = TEME
TIME_SYSTEM    = UTC
MEAN_ELEMENT_THEORY = SGP/SGP4

EPOCH          = 2025-11-12T06:00:02.999808
MEAN_MOTION    = 15.74150984
ECCENTRICITY   = .00009187
INCLINATION    = 53.1578
RA_OF_ASC_NODE = 73.4553
ARG_OF_PERICENTER = 94.4300
MEAN_ANOMALY   = 328.1313

EPHEMERIS_TYPE = 0
CLASSIFICATION_TYPE = U
NORAD_CAT_ID   = 66200
ELEMENT_SET_NO = 999
REV_AT_EPOCH   = 368
BSTAR          = .64589842E-3
MEAN_MOTION_DOT = .94878E-3
MEAN_MOTION_DDOT = 0

CCSDS_OMM_VERS = 2.0
CREATION_DATE  = 
ORIGINATOR     = 

OBJECT_NAME    = STARLINK-35543
OBJECT_ID      = 2025-243AA
CENTER_NAME    = EARTH
REF_FRAME      = TEME
TIME_SYSTEM    = UTC
MEAN_ELEMENT_THEORY = SGP/SGP4

EPOCH          = 2025-11-12T06:00:02.999808
MEAN_MOTION    = 15.74190440
ECCENTRICITY   = .00012227
INCLINATION    = 53.1577
RA_OF_ASC_NODE = 73.4589
ARG_OF_PERICENTER = 92.0151
MEAN_ANOMALY   = 328.6124

EPHEMERIS_TYPE = 0
CLASSIFICATION_TYPE = U
NORAD_CAT_ID   = 66201
ELEMENT_SET_NO = 999
REV_AT_EPOCH   = 374
BSTAR          = .20278189E-3
MEAN_MOTION_DOT = .29173E-3
MEAN_MOTION_DDOT = 0

CCSDS_OMM_VERS = 2.0
CREATION_DATE  = 
ORIGINATOR     = 

OBJECT_NAME    = STARLINK-35534
OBJECT_ID      = 2025-243AB
CENTER_NAME    = EARTH
REF_FRAME      = TEME
TIME_SYSTEM    = UTC
MEAN_ELEMENT_THEORY = SGP/SGP4

EPOCH          = 2025-11-12T06:00:02.999808
MEAN_MOTION    = 15.74164222
ECCENTRICITY   = .00010986
INCLINATION    = 53.1576
RA_OF_ASC_NODE = 73.4630
ARG_OF_PERICENTER = 65.8391
MEAN_ANOMALY   = 352.8798

EPHEMERIS_TYPE = 0
CLASSIFICATION_TYPE = U
NORAD_CAT_ID   = 66202
ELEMENT_SET_NO = 999
REV_AT_EPOCH   = 368
BSTAR          = .54652504E-3
MEAN_MOTION_DOT = .80088E-3
MEAN_MOTION_DDOT = 0

CCSDS_OMM_VERS = 2.0
CREATION_DATE  = 
ORIGINATOR     = 

OBJECT_NAME    = STARLINK-35548
OBJECT_ID      = 2025-243AC
CENTER_NAME    = EARTH
REF_FRAME      = TEME
TIME_SYSTEM    = UTC
MEAN_ELEMENT_THEORY = SGP/SGP4

EPOCH          = 2025-11-12T06:00:02.999808
MEAN_MOTION    = 15.74160337
ECCENTRICITY   = .00011048
INCLINATION    = 53.1575
RA_OF_ASC_NODE = 73.4675
ARG_OF_PERICENTER = 98.5384
MEAN_ANOMALY   = 318.2724

EPHEMERIS_TYPE = 0
CLASSIFICATION_TYPE = U
NORAD_CAT_ID   = 66203
ELEMENT_SET_NO = 999
REV_AT_EPOCH   = 374
BSTAR          = .45843656E-3
MEAN_MOTION_DOT = .66961E-3
MEAN_MOTION_DDOT = 0

CCSDS_OMM_VERS = 2.0
CREATION_DATE  = 
ORIGINATOR     = 

OBJECT_NAME    = STARLINK-35490
OBJECT_ID      = 2025-243AD
CENTER_NAME    = EARTH
REF_FRAME      = TEME
TIME_SYSTEM    = UTC
MEAN_ELEMENT_THEORY = SGP/SGP4

EPOCH          = 2025-11-12T06:00:02.999808
MEAN_MOTION    = 15.74132554
ECCENTRICITY   = .00010549
INCLINATION    = 53.1576
RA_OF_ASC_NODE = 73.4754
ARG_OF_PERICENTER = 77.3064
MEAN_ANOMALY   = 335.6658

EPHEMERIS_TYPE = 0
CLASSIFICATION_TYPE = U
NORAD_CAT_ID   = 66204
ELEMENT_SET_NO = 999
REV_AT_EPOCH   = 363
BSTAR          = .11000221E-2
MEAN_MOTION_DOT = .16323E-2
MEAN_MOTION_DDOT = 0

CCSDS_OMM_VERS = 2.0
CREATION_DATE  = 
ORIGINATOR     = 

OBJECT_NAME    = STARLINK-35748
OBJECT_ID      = 2025-244A
CENTER_NAME    = EARTH
REF_FRAME      = TEME
TIME_SYSTEM    = UTC
MEAN_ELEMENT_THEORY = SGP/SGP4

EPOCH          = 2025-11-12T06:00:02.999808
MEAN_MOTION    = 15.68033302
ECCENTRICITY   = .00011718
INCLINATION    = 53.1598
RA_OF_ASC_NODE = 60.5844
ARG_OF_PERICENTER = 63.6617
MEAN_ANOMALY   = 27.3622

EPHEMERIS_TYPE = 0
CLASSIFICATION_TYPE = U
NORAD_CAT_ID   = 66206
ELEMENT_SET_NO = 999
REV_AT_EPOCH   = 336
BSTAR          = -.19146025E-1
MEAN_MOTION_DOT = -.1918257E-1
MEAN_MOTION_DDOT = 0

CCSDS_OMM_VERS = 2.0
CREATION_DATE  = 
ORIGINATOR     = 

OBJECT_NAME    = STARLINK-35747
OBJECT_ID      = 2025-244B
CENTER_NAME    = EARTH
REF_FRAME      = TEME
TIME_SYSTEM    = UTC
MEAN_ELEMENT_THEORY = SGP/SGP4

EPOCH          = 2025-11-12T06:00:02.999808
MEAN_MOTION    = 15.74096899
ECCENTRICITY   = .00011775
INCLINATION    = 53.1587
RA_OF_ASC_NODE = 60.5468
ARG_OF_PERICENTER = 98.9824
MEAN_ANOMALY   = 10.1230

EPHEMERIS_TYPE = 0
CLASSIFICATION_TYPE = U
NORAD_CAT_ID   = 66207
ELEMENT_SET_NO = 999
REV_AT_EPOCH   = 336
BSTAR          = .14284978E-2
MEAN_MOTION_DOT = .213103E-2
MEAN_MOTION_DDOT = 0

CCSDS_OMM_VERS = 2.0
CREATION_DATE  = 
ORIGINATOR     = 

OBJECT_NAME    = STARLINK-35751
OBJECT_ID      = 2025-244C
CENTER_NAME    = EARTH
REF_FRAME      = TEME
TIME_SYSTEM    = UTC
MEAN_ELEMENT_THEORY = SGP/SGP4

EPOCH          = 2025-11-12T06:00:02.999808
MEAN_MOTION    = 15.68007333
ECCENTRICITY   = .00009367
INCLINATION    = 53.1597
RA_OF_ASC_NODE = 60.5764
ARG_OF_PERICENTER = 89.8398
MEAN_ANOMALY   = 5.0405

EPHEMERIS_TYPE = 0
CLASSIFICATION_TYPE = U
NORAD_CAT_ID   = 66208
ELEMENT_SET_NO = 999
REV_AT_EPOCH   = 347
BSTAR          = -.18873171E-1
MEAN_MOTION_DOT = -.1892049E-1
MEAN_MOTION_DDOT = 0

CCSDS_OMM_VERS = 2.0
CREATION_DATE  = 
ORIGINATOR     = 

OBJECT_NAME    = STARLINK-35750
OBJECT_ID      = 2025-244D
CENTER_NAME    = EARTH
REF_FRAME      = TEME
TIME_SYSTEM    = UTC
MEAN_ELEMENT_THEORY = SGP/SGP4

EPOCH          = 2025-11-12T06:00:02.999808
MEAN_MOTION    = 15.68031510
ECCENTRICITY   = .00011083
INCLINATION    = 53.1598
RA_OF_ASC_NODE = 60.5678
ARG_OF_PERICENTER = 70.2038
MEAN_ANOMALY   = 28.4898

EPHEMERIS_TYPE = 0
CLASSIFICATION_TYPE = U
NORAD_CAT_ID   = 66209
ELEMENT_SET_NO = 999
REV_AT_EPOCH   = 344
BSTAR          = -.19129183E-1
MEAN_MOTION_DOT = -.1916592E-1
MEAN_MOTION_DDOT = 0

CCSDS_OMM_VERS = 2.0
CREATION_DATE  = 
ORIGINATOR     = 

OBJECT_NAME    = STARLINK-35740
OBJECT_ID      = 2025-244E
CENTER_NAME    = EARTH
REF_FRAME      = TEME
TIME_SYSTEM    = UTC
MEAN_ELEMENT_THEORY = SGP/SGP4

EPOCH          = 2025-11-12T06:00:02.999808
MEAN_MOTION    = 15.68033808
ECCENTRICITY   = .00011761
INCLINATION    = 53.1597
RA_OF_ASC_NODE = 60.5720
ARG_OF_PERICENTER = 66.7582
MEAN_ANOMALY   = 30.0160

EPHEMERIS_TYPE = 0
CLASSIFICATION_TYPE = U
NORAD_CAT_ID   = 66210
ELEMENT_SET_NO = 999
REV_AT_EPOCH   = 331
BSTAR          = -.19152575E-1
MEAN_MOTION_DOT = -.1918877E-1
MEAN_MOTION_DDOT = 0

CCSDS_OMM_VERS = 2.0
CREATION_DATE  = 
ORIGINATOR     = 

OBJECT_NAME    = STARLINK-35723
OBJECT_ID      = 2025-244F
CENTER_NAME    = EARTH
REF_FRAME      = TEME
TIME_SYSTEM    = UTC
MEAN_ELEMENT_THEORY = SGP/SGP4

EPOCH          = 2025-11-12T06:00:02.999808
MEAN_MOTION    = 15.68034364
ECCENTRICITY   = .00012337
INCLINATION    = 53.1598
RA_OF_ASC_NODE = 60.5635
ARG_OF_PERICENTER = 66.4840
MEAN_ANOMALY   = 34.1242

EPHEMERIS_TYPE = 0
CLASSIFICATION_TYPE = U
NORAD_CAT_ID   = 66211
ELEMENT_SET_NO = 999
REV_AT_EPOCH   = 336
BSTAR          = -.19168671E-1
MEAN_MOTION_DOT = -.1920384E-1
MEAN_MOTION_DDOT = 0

