STARLINK-35509          
1 66199U 25243Y   25316.25003472  .00058425  00000+0  40089-3 0  9994
2 66199  53.1576  73.4477 0001140  97.7230 328.6695 15.74163672  3684
STARLINK-35551          
1 66200U 25243Z   25316.25003472  .00094878  00000+0  64590-3 0  9992
2 66200  53.1578  73.4553 0000918  94.4300 328.1313 15.74150984  3682
STARLINK-35543          
1 66201U 25243AA  25316.25003472  .00029173  00000+0  20278-3 0  9994
2 66201  53.1577  73.4589 0001222  92.0151 328.6124 15.74190440  3741
STARLINK-35534          
1 66202U 25243AB  25316.25003472  .00080088  00000+0  54653-3 0  9991
2 66202  53.1576  73.4630 0001098  65.8391 352.8798 15.74164222  3681
STARLINK-35548          
1 66203U 25243AC  25316.25003472  .00066961  00000+0  45844-3 0  9998
2 66203  53.1575  73.4675 0001104  98.5384 318.2724 15.74160337  3748
STARLINK-35490          
1 66204U 25243AD  25316.25003472  .00163230  00000+0  11000-2 0  9992
2 66204  53.1576  73.4754 0001054  77.3064 335.6658 15.74132554  3639
STARLINK-35748          
1 66206U 25244A   25316.25003472 -.01918257  00000+0 -19146-1 0  9993
2 66206  53.1598  60.5844 0001171  63.6617  27.3622 15.68033302  3364
STARLINK-35747          
1 66207U 25244B   25316.25003472  .00213103  00000+0  14285-2 0  9999
2 66207  53.1587  60.5468 0001177  98.9824  10.1230 15.74096899  3364
STARLINK-35751          
1 66208U 25244C   25316.25003472 -.01892049  00000+0 -18873-1 0  9991
2 66208  53.1597  60.5764 0000936  89.8398   5.0405 15.68007333  3479
STARLINK-35750          
1 66209U 25244D   25316.25003472 -.01916592  00000+0 -19129-1 0  9997
2 66209  53.1598  60.5678 0001108  70.2038  28.4898 15.68031510  3448
STARLINK-35740          
1 66210U 25244E   25316.25003472 -.01918877  00000+0 -19153-1 0  9994
2 66210  53.1597  60.5720 0001176  66.7582  30.0160 15.68033808  3315
STARLINK-35723          
1 66211U 25244F   25316.25003472 -.01920384  00000+0 -19169-1 0  9998
2 66211  53.1598  60.5635 0001233  66.4840  34.1242 15.68034364  3369
